{"type": "FeatureCollection", "features": [ {"type": "Feature", "properties": {"norad_id": 30081, "name": "FENGYUN 1C DEB", "group": "fengyun-1c-debris", "lat": 15.06504897708046, "lon": 173.09012393746107, "alt_km": 949.420824983381, "timestamp": "2025-12-20T14:38:02.243595+00:00", "meta": {"OBJECT_NAME": "FENGYUN 1C DEB", "OBJECT_ID": "1999-025QJ", "EPOCH": "2025-12-20T00:26:18.458016", "MEAN_MOTION": 13.98288719, "ECCENTRICITY": 0.00757689, "INCLINATION": 98.9233, "RA_OF_ASC_NODE": 350.0912, "ARG_OF_PERICENTER": 319.0702, "MEAN_ANOMALY": 110.1878, "EPHEMERIS_TYPE": 0, "CLASSIFICATION_TYPE": "U", "NORAD_CAT_ID": 30081, "ELEMENT_SET_NO": 999, "REV_AT_EPOCH": 96456, "BSTAR": 0.00038341834, "MEAN_MOTION_DOT": 5.17e-06, "MEAN_MOTION_DDOT": 0}, "tle": {"line1": "1 30081U 99025QJ  25354.01826919  .00000517  00000+0  38342-3 0  9997", "line2": "2 30081  98.9233 350.0912 0075768 319.0702 110.1878 13.98288719964565"}}, "geometry": {"type": "Point", "coordinates": [173.09012393746107, 15.06504897708046]}}, {"type": "Feature", "properties": {"norad_id": 30082, "name": "FENGYUN 1C DEB", "group": "fengyun-1c-debris", "lat": 59.31815747336473, "lon": 118.7774907820368, "alt_km": 468.5362868720631, "timestamp": "2025-12-20T14:38:02.243605+00:00", "meta": {"OBJECT_NAME": "FENGYUN 1C DEB", "OBJECT_ID": "1999-025QK", "EPOCH": "2025-12-20T01:25:55.577856", "MEAN_MOTION": 15.15408517, "ECCENTRICITY": 0.00702322, "INCLINATION": 98.8193, "RA_OF_ASC_NODE": 282.97, "ARG_OF_PERICENTER": 141.8418, "MEAN_ANOMALY": 218.7813, "EPHEMERIS_TYPE": 0, "CLASSIFICATION_TYPE": "U", "NORAD_CAT_ID": 30082, "ELEMENT_SET_NO": 999, "REV_AT_EPOCH": 1404, "BSTAR": 0.00072134682, "MEAN_MOTION_DOT": 0.00014431, "MEAN_MOTION_DDOT": 0}, "tle": {"line1": "1 30082U 99025QK  25354.05967104  .00014431  00000+0  72135-3 0  9992", "line2": "2 30082  98.8193 282.9700 0070232 141.8418 218.7813 15.15408517 14048"}}, "geometry": {"type": "Point", "coordinates": [118.7774907820368, 59.31815747336473]}}, {"type": "Feature", "properties": {"norad_id": 30086, "name": "FENGYUN 1C DEB", "group": "fengyun-1c-debris", "lat": 67.39313033849132, "lon": -129.73277233187716, "alt_km": 829.0032624177966, "timestamp": "2025-12-20T14:38:02.243616+00:00", "meta": {"OBJECT_NAME": "FENGYUN 1C DEB", "OBJECT_ID": "1999-025QP", "EPOCH": "2025-12-20T00:42:24.252768", "MEAN_MOTION": 14.03840414, "ECCENTRICITY": 0.00619095, "INCLINATION": 98.9098, "RA_OF_ASC_NODE": 27.5674, "ARG_OF_PERICENTER": 114.4417, "MEAN_ANOMALY": 305.2832, "EPHEMERIS_TYPE": 0, "CLASSIFICATION_TYPE": "U", "NORAD_CAT_ID": 30086, "ELEMENT_SET_NO": 999, "REV_AT_EPOCH": 96798, "BSTAR": 0.00039063992, "MEAN_MOTION_DOT": 5.83e-06, "MEAN_MOTION_DDOT": 0}, "tle": {"line1": "1 30086U 99025QP  25354.02944737  .00000583  00000+0  39064-3 0  9997", "line2": "2 30086  98.9098  27.5674 0061909 114.4417 305.2832 14.03840414967981"}}, "geometry": {"type": "Point", "coordinates": [-129.73277233187716, 67.39313033849132]}}, {"type": "Feature", "properties": {"norad_id": 30087, "name": "FENGYUN 1C DEB", "group": "fengyun-1c-debris", "lat": -20.61309017005249, "lon": -156.53901488812716, "alt_km": 810.6626485181696, "timestamp": "2025-12-20T14:38:02.243625+00:00", "meta": {"OBJECT_NAME": "FENGYUN 1C DEB", "OBJECT_ID": "1999-025QQ", "EPOCH": "2025-12-20T02:08:00.431232", "MEAN_MOTION": 14.35715669, "ECCENTRICITY": 0.02304143, "INCLINATION": 98.3793, "RA_OF_ASC_NODE": 26.1325, "ARG_OF_PERICENTER": 99.5243, "MEAN_ANOMALY": 288.102, "EPHEMERIS_TYPE": 0, "CLASSIFICATION_TYPE": "U", "NORAD_CAT_ID": 30087, "ELEMENT_SET_NO": 999, "REV_AT_EPOCH": 98801, "BSTAR": 0.000165008, "MEAN_MOTION_DOT": 5.96e-06, "MEAN_MOTION_DDOT": 0}, "tle": {"line1": "1 30087U 99025QQ  25354.08889388  .00000596  00000+0  16501-3 0  9999", "line2": "2 30087  98.3793  26.1325 0230414  99.5243 288.1020 14.35715669988018"}}, "geometry": {"type": "Point", "coordinates": [-156.53901488812716, -20.61309017005249]}}, {"type": "Feature", "properties": {"norad_id": 30088, "name": "FENGYUN 1C DEB", "group": "fengyun-1c-debris", "lat": 76.91764300361025, "lon": -162.1202803270465, "alt_km": 842.5392493338832, "timestamp": "2025-12-20T14:38:02.243636+00:00", "meta": {"OBJECT_NAME": "FENGYUN 1C DEB", "OBJECT_ID": "1999-025QR", "EPOCH": "2025-12-19T23:24:33.873120", "MEAN_MOTION": 14.3592666, "ECCENTRICITY": 0.0200937, "INCLINATION": 98.3548, "RA_OF_ASC_NODE": 338.0379, "ARG_OF_PERICENTER": 225.7228, "MEAN_ANOMALY": 198.9827, "EPHEMERIS_TYPE": 0, "CLASSIFICATION_TYPE": "U", "NORAD_CAT_ID": 30088, "ELEMENT_SET_NO": 999, "REV_AT_EPOCH": 98776, "BSTAR": 0.00020559, "MEAN_MOTION_DOT": 7e-06, "MEAN_MOTION_DDOT": 0}, "tle": {"line1": "1 30088U 99025QR  25353.97539205  .00000700  00000+0  20559-3 0  9992", "line2": "2 30088  98.3548 338.0379 0200937 225.7228 198.9827 14.35926660987763"}}, "geometry": {"type": "Point", "coordinates": [-162.1202803270465, 76.91764300361025]}}, {"type": "Feature", "properties": {"norad_id": 30089, "name": "FENGYUN 1C DEB", "group": "fengyun-1c-debris", "lat": -23.88562427134202, "lon": -95.83270430446053, "alt_km": 841.3013197246473, "timestamp": "2025-12-20T14:38:02.243646+00:00", "meta": {"OBJECT_NAME": "FENGYUN 1C DEB", "OBJECT_ID": "1999-025QS", "EPOCH": "2025-12-20T05:22:53.661216", "MEAN_MOTION": 14.30313538, "ECCENTRICITY": 0.00736237, "INCLINATION": 98.9037, "RA_OF_ASC_NODE": 259.7922, "ARG_OF_PERICENTER": 187.9877, "MEAN_ANOMALY": 323.5436, "EPHEMERIS_TYPE": 0, "CLASSIFICATION_TYPE": "U", "NORAD_CAT_ID": 30089, "ELEMENT_SET_NO": 999, "REV_AT_EPOCH": 98586, "BSTAR": 0.00016085461, "MEAN_MOTION_DOT": 3.84e-06, "MEAN_MOTION_DDOT": 0}, "tle": {"line1": "1 30089U 99025QS  25354.22423219  .00000384  00000+0  16085-3 0  9996", "line2": "2 30089  98.9037 259.7922 0073623 187.9877 323.5436 14.30313538985865"}}, "geometry": {"type": "Point", "coordinates": [-95.83270430446053, -23.88562427134202]}}, {"type": "Feature", "properties": {"norad_id": 30090, "name": "FENGYUN 1C DEB", "group": "fengyun-1c-debris", "lat": -14.54006071126407, "lon": -14.1473532053521, "alt_km": 810.2234670146099, "timestamp": "2025-12-20T14:38:02.243656+00:00", "meta": {"OBJECT_NAME": "FENGYUN 1C DEB", "OBJECT_ID": "1999-025QT", "EPOCH": "2025-12-20T00:52:00.598656", "MEAN_MOTION": 14.29041904, "ECCENTRICITY": 0.00581809, "INCLINATION": 99.4091, "RA_OF_ASC_NODE": 167.699, "ARG_OF_PERICENTER": 91.089, "MEAN_ANOMALY": 33.464, "EPHEMERIS_TYPE": 0, "CLASSIFICATION_TYPE": "U", "NORAD_CAT_ID": 30090, "ELEMENT_SET_NO": 999, "REV_AT_EPOCH": 98374, "BSTAR": 0.00024206148, "MEAN_MOTION_DOT": 5.74e-06, "MEAN_MOTION_DDOT": 0}, "tle": {"line1": "1 30090U 99025QT  25354.03611804  .00000574  00000+0  24206-3 0  9991", "line2": "2 30090  99.4091 167.6990 0058180  91.0890  33.4640 14.29041904983748"}}, "geometry": {"type": "Point", "coordinates": [-14.1473532053521, -14.54006071126407]}}, {"type": "Feature", "properties": {"norad_id": 30092, "name": "FENGYUN 1C DEB", "group": "fengyun-1c-debris", "lat": 75.73147518747818, "lon": 136.03005573874734, "alt_km": 804.1047123930011, "timestamp": "2025-12-20T14:38:02.243666+00:00", "meta": {"OBJECT_NAME": "FENGYUN 1C DEB", "OBJECT_ID": "1999-025QV", "EPOCH": "2025-12-20T01:29:24.847296", "MEAN_MOTION": 14.39162724, "ECCENTRICITY": 0.00827205, "INCLINATION": 98.923, "RA_OF_ASC_NODE": 173.6147, "ARG_OF_PERICENTER": 228.6401, "MEAN_ANOMALY": 254.9308, "EPHEMERIS_TYPE": 0, "CLASSIFICATION_TYPE": "U", "NORAD_CAT_ID": 30092, "ELEMENT_SET_NO": 999, "REV_AT_EPOCH": 98854, "BSTAR": 0.00039293948, "MEAN_MOTION_DOT": 1.217e-05, "MEAN_MOTION_DDOT": 0}, "tle": {"line1": "1 30092U 99025QV  25354.06209314  .00001217  00000+0  39294-3 0  9993", "line2": "2 30092  98.9230 173.6147 0082720 228.6401 254.9308 14.39162724988542"}}, "geometry": {"type": "Point", "coordinates": [136.03005573874734, 75.73147518747818]}}, {"type": "Feature", "properties": {"norad_id": 30093, "name": "FENGYUN 1C DEB", "group": "fengyun-1c-debris", "lat": 61.263629221573865, "lon": -147.03369509768564, "alt_km": 755.5656258060171, "timestamp": "2025-12-20T14:38:02.243676+00:00", "meta": {"OBJECT_NAME": "FENGYUN 1C DEB", "OBJECT_ID": "1999-025QW", "EPOCH": "2025-12-20T03:24:52.784640", "MEAN_MOTION": 14.43730546, "ECCENTRICITY": 0.00696945, "INCLINATION": 98.8678, "RA_OF_ASC_NODE": 229.0224, "ARG_OF_PERICENTER": 315.5978, "MEAN_ANOMALY": 197.995, "EPHEMERIS_TYPE": 0, "CLASSIFICATION_TYPE": "U", "NORAD_CAT_ID": 30093, "ELEMENT_SET_NO": 999, "REV_AT_EPOCH": 98910, "BSTAR": 0.00059281001, "MEAN_MOTION_DOT": 2.025e-05, "MEAN_MOTION_DDOT": 0}, "tle": {"line1": "1 30093U 99025QW  25354.14227760  .00002025  00000+0  59281-3 0  9994", "line2": "2 30093  98.8678 229.0224 0069694 315.5978 197.9950 14.43730546989100"}}, "geometry": {"type": "Point", "coordinates": [-147.03369509768564, 61.263629221573865]}}, {"type": "Feature", "properties": {"norad_id": 30095, "name": "FENGYUN 1C DEB", "group": "fengyun-1c-debris", "lat": -5.670130914650788, "lon": 96.00210526904512, "alt_km": 685.7708290942228, "timestamp": "2025-12-20T14:38:02.243687+00:00", "meta": {"OBJECT_NAME": "FENGYUN 1C DEB", "OBJECT_ID": "1999-025QY", "EPOCH": "2025-12-19T18:20:38.657184", "MEAN_MOTION": 14.82233328, "ECCENTRICITY": 0.01645277, "INCLINATION": 99.2212, "RA_OF_ASC_NODE": 275.9528, "ARG_OF_PERICENTER": 310.3972, "MEAN_ANOMALY": 48.2975, "EPHEMERIS_TYPE": 0, "CLASSIFICATION_TYPE": "U", "NORAD_CAT_ID": 30095, "ELEMENT_SET_NO": 999, "REV_AT_EPOCH": 99439, "BSTAR": 0.0013659966, "MEAN_MOTION_DOT": 0.0001375, "MEAN_MOTION_DDOT": 0}, "tle": {"line1": "1 30095U 99025QY  25353.76433631  .00013750  00000+0  13660-2 0  9996", "line2": "2 30095  99.2212 275.9528 0164527 310.3972  48.2975 14.82233328994397"}}, "geometry": {"type": "Point", "coordinates": [96.00210526904512, -5.670130914650788]}}]}